ONEWEB-0560             
1 55145U 23004F   24224.91301568  .00000029  00000+0  40483-4 0  9999
2 55145  87.9121 109.7216 0001387  78.1615 281.9672 13.18685907 80846
ONEWEB-0565             
1 55146U 23004G   24224.37554356  .00000062  00000+0  12567-3 0  9993
2 55146  87.9119 109.9041 0001693 100.0983 260.0340 13.18688256 80766
ONEWEB-0567             
1 55147U 23004H   24224.67273729  .00000029  00000+0  40354-4 0  9998
2 55147  87.9118 109.7988 0001484  91.4954 268.6348 13.18684650 80804
ONEWEB-0569             
1 55148U 23004J   24224.91163721 -.00000132  00000+0 -39566-3 0  9995
2 55148  87.8888  94.3988 0000921 114.9143 245.2082 13.13469473 81663
ONEWEB-0570             
1 55149U 23004K   24224.96359077  .00000001  00000+0 -29629-4 0  9996
2 55149  87.9119 109.7388 0002409  92.0688 268.0720 13.18687814 80836
ONEWEB-0571             
1 55150U 23004L   24225.18490672  .00000080  00000+0  17118-3 0  9995
2 55150  87.9122 109.7010 0001756 112.9872 247.1446 13.18685434 80878
ONEWEB-0572             
1 55151U 23004M   24224.75049618  .00000055  00000+0  10917-3 0  9990
2 55151  87.9187 140.1813 0002013  82.6657 277.4704 13.17648684 78663
ONEWEB-0573             
1 55152U 23004N   24225.17857600  .00000217  00000+0  51740-3 0  9995
2 55152  87.9116 109.7205 0001950 109.7098 250.4245 13.18687283 80866
